*******************************************************************************
JPL/HORIZONS                409 Aspasia (A895 XC)          2023-Sep-04 11:06:10
Rec #:     409 (+COV) Soln.date: 2023-Aug-23_16:00:08   # obs: 4951 (1895-2023)
 
IAU76/J2000 helio. ecliptic osc. elements (au, days, deg., period=Julian yrs):
 
  EPOCH=  2457405.5 ! 2016-Jan-18.00 (TDB)         Residual RMS= .28692
   EC= .07325412442449669  QR= 2.386386538000293   TP= 2458018.658788315
   OM= 242.1936495159554   W=  353.8153927286883   IN= 11.26229308224493
   A= 2.575017165863686    MA= 213.74630790297     ADIST= 2.763647793727079
   PER= 4.13217            N= .238524987           ANGMOM= .027529804
   DAN= 2.38733            DDN= 2.76238            L= 236.1272401
   B= -1.2056032           MOID= 1.37531996        TP= 2017-Sep-22.1587883150
 
Asteroid physical parameters (km, seconds, rotational period in hours):
   GM= n.a.                RAD= 85.506             ROTPER= 9.022
   H= 7.71                 G= .290                 B-V= .719
                           ALBEDO= .054            STYP= Xc

ASTEROID comments: 
1: soln ref.= JPL#122, OCC=0
2: source=ORB
*******************************************************************************


*******************************************************************************
Ephemeris / API_USER Mon Sep  4 11:06:10 2023 Pasadena, USA      / Horizons
*******************************************************************************
Target body name: 409 Aspasia (A895 XC)           {source: JPL#122}
Center body name: Solar System Barycenter (0)     {source: DE441}
Center-site name: BODY CENTER
*******************************************************************************
Start time      : A.D. 2023-Aug-12 00:00:00.0000 TDB
Stop  time      : A.D. 2023-Aug-13 00:00:00.0000 TDB
Step-size       : 2880 minutes
*******************************************************************************
Center geodetic : 0.0, 0.0, 0.0                   {E-lon(deg),Lat(deg),Alt(km)}
Center cylindric: 0.0, 0.0, 0.0                   {E-lon(deg),Dxy(km),Dz(km)}
Center radii    : (undefined)
Small perturbers: Yes                             {source: SB441-N16}
Output units    : KM-S
Calendar mode   : Mixed Julian/Gregorian
Output type     : GEOMETRIC cartesian states
Output format   : 2 (position and velocity)
Reference frame : Ecliptic of J2000.0
*******************************************************************************
Initial IAU76/J2000 heliocentric ecliptic osculating elements (au, days, deg.):
  EPOCH=  2457405.5 ! 2016-Jan-18.00 (TDB)         Residual RMS= .28692        
   EC= .07325412442449669  QR= 2.386386538000293   TP= 2458018.658788315       
   OM= 242.1936495159554   W=  353.8153927286883   IN= 11.26229308224493       
  Equivalent ICRF heliocentric cartesian coordinates (au, au/d):
   X= 2.365016394291730E-01  Y= 2.576969030455901E+00  Z= 8.875285484529967E-01
  VX=-9.906824583376163E-03 VY= 1.013946321403726E-03 VZ=-1.496271829071099E-03
Asteroid physical parameters (km, seconds, rotational period in hours):        
   GM= n.a.                RAD= 85.506             ROTPER= 9.022               
   H= 7.71                 G= .290                 B-V= .719                   
                           ALBEDO= .054            STYP= Xc                    
*******************************************************************************
JDTDB
   X     Y     Z
   VX    VY    VZ
*******************************************************************************
$$SOE
2460168.500000000 = A.D. 2023-Aug-12 00:00:00.0000 TDB 
 X = 3.431524423154569E+08 Y = 2.193508212343819E+08 Z = 4.018442840768972E+07
 VX=-8.489714954423720E+00 VY= 1.488661740072603E+01 VZ=-2.888215622449631E+00
$$EOE
*******************************************************************************
 
TIME

  Barycentric Dynamical Time ("TDB" or T_eph) output was requested. This
continuous coordinate time is equivalent to the relativistic proper time
of a clock at rest in a reference frame co-moving with the solar system
barycenter but outside the system's gravity well. It is the independent
variable in the solar system relativistic equations of motion.

  TDB runs at a uniform rate of one SI second per second and is independent
of irregularities in Earth's rotation.
 
CALENDAR SYSTEM

  Mixed calendar mode was active such that calendar dates after AD 1582-Oct-15
(if any) are in the modern Gregorian system. Dates prior to 1582-Oct-5 (if any)
are in the Julian calendar system, which is automatically extended for dates
prior to its adoption on 45-Jan-1 BC.  The Julian calendar is useful for
matching historical dates. The Gregorian calendar more accurately corresponds
to the Earth's orbital motion and seasons. A "Gregorian-only" calendar mode is
available if such physical events are the primary interest.

REFERENCE FRAME AND COORDINATES

  Ecliptic at the standard reference epoch

    Reference epoch: J2000.0
    X-Y plane: adopted Earth orbital plane at the reference epoch
               Note: IAU76 obliquity of 84381.448 arcseconds wrt ICRF X-Y plane
    X-axis   : ICRF
    Z-axis   : perpendicular to the X-Y plane in the directional (+ or -) sense
               of Earth's north pole at the reference epoch.

  Symbol meaning:

    JDTDB    Julian Day Number, Barycentric Dynamical Time
      X      X-component of position vector (km)
      Y      Y-component of position vector (km)
      Z      Z-component of position vector (km)
      VX     X-component of velocity vector (km/sec)                           
      VY     Y-component of velocity vector (km/sec)                           
      VZ     Z-component of velocity vector (km/sec)                           

ABERRATIONS AND CORRECTIONS

 Geometric state vectors have NO corrections or aberrations applied.

Computations by ...

    Solar System Dynamics Group, Horizons On-Line Ephemeris System
    4800 Oak Grove Drive, Jet Propulsion Laboratory
    Pasadena, CA  91109   USA

    General site: https://ssd.jpl.nasa.gov/
    Mailing list: https://ssd.jpl.nasa.gov/email_list.html
    System news : https://ssd.jpl.nasa.gov/horizons/news.html
    User Guide  : https://ssd.jpl.nasa.gov/horizons/manual.html
    Connect     : browser        https://ssd.jpl.nasa.gov/horizons/app.html#/x
                  API            https://ssd-api.jpl.nasa.gov/doc/horizons.html
                  command-line   telnet ssd.jpl.nasa.gov 6775
                  e-mail/batch   https://ssd.jpl.nasa.gov/ftp/ssd/hrzn_batch.txt
                  scripts        https://ssd.jpl.nasa.gov/ftp/ssd/SCRIPTS
    Author      : Jon.D.Giorgini@jpl.nasa.gov
*******************************************************************************
